start=new Date('2023-02-02T00:00:00.000Z').valueOf();
sats=[{"ECCENTRICITY":"0.00014750","TIME_SYSTEM":"UTC","NORAD_CAT_ID":"52129","MEAN_ANOMALY":"271.7103","PERIOD":"95.437","MEAN_MOTION":"15.08845705","OBJECT_NAME":"STARLINK-3661","RCS_SIZE":"LARGE","APOAPSIS":"540.748","OBJECT_TYPE":"PAYLOAD","EPOCH":"2023-02-01T12:05:02.133024","COUNTRY_CODE":"US","TLE_LINE1":"1 52129U 22029AT  23032.50349691  .00000349  00000-0  40013-4 0  9999","OBJECT_ID":"2022-029AT","RA_OF_ASC_NODE":"111.6960","TLE_LINE2":"2 52129  53.2178 111.6960 0001475  88.4058 271.7103 15.08845705 50011","GP_ID":"224202263","BSTAR":"0.00004001300000","REF_FRAME":"TEME","SEMIMAJOR_AXIS":"6917.863","MEAN_MOTION_DDOT":"0.0000000000000","SITE":"AFETR","EPHEMERIS_TYPE":"0","CLASSIFICATION_TYPE":"U","ELEMENT_SET_NO":"999","REV_AT_EPOCH":"5001","INCLINATION":"53.2178","MEAN_ELEMENT_THEORY":"SGP4","MEAN_MOTION_DOT":"0.00000349","FILE":"3767600","CENTER_NAME":"EARTH","LAUNCH_DATE":"2022-03-19","PERIAPSIS":"538.708","DECAY_DATE":null,"ARG_OF_PERICENTER":"88.4058"},{"REF_FRAME":"TEME","BSTAR":"0.00002311600000","SEMIMAJOR_AXIS":"6917.862","MEAN_MOTION_DDOT":"0.0000000000000","SITE":"AFETR","EPHEMERIS_TYPE":"0","OBJECT_ID":"2022-029AV","RA_OF_ASC_NODE":"111.7277","TLE_LINE2":"2 52131  53.2149 111.7277 0001193  99.4214 260.6913 15.08846029 50013","GP_ID":"224197290","MEAN_MOTION_DOT":"0.00000080","FILE":"3767525","LAUNCH_DATE":"2022-03-19","CENTER_NAME":"EARTH","DECAY_DATE":null,"PERIAPSIS":"538.902","ARG_OF_PERICENTER":"99.4214","ELEMENT_SET_NO":"999","CLASSIFICATION_TYPE":"U","REV_AT_EPOCH":"5001","MEAN_ELEMENT_THEORY":"SGP4","INCLINATION":"53.2149","PERIOD":"95.437","MEAN_MOTION":"15.08846029","OBJECT_NAME":"STARLINK-3711","ECCENTRICITY":"0.00011930","TIME_SYSTEM":"UTC","NORAD_CAT_ID":"52131","MEAN_ANOMALY":"260.6913","EPOCH":"2023-02-01T11:59:43.935648","COUNTRY_CODE":"US","TLE_LINE1":"1 52131U 22029AV  23032.49981407  .00000080  00000-0  23116-4 0  9994","RCS_SIZE":"LARGE","OBJECT_TYPE":"PAYLOAD","APOAPSIS":"540.552"},{"TLE_LINE1":"1 52132U 22029AW  23032.44093555  .00002828  00000-0  19566-3 0  9993","EPOCH":"2023-02-01T10:34:56.831520","COUNTRY_CODE":"US","OBJECT_TYPE":"PAYLOAD","APOAPSIS":"540.375","RCS_SIZE":"LARGE","OBJECT_NAME":"STARLINK-3718","MEAN_MOTION":"15.08845792","PERIOD":"95.437","MEAN_ANOMALY":"274.8625","NORAD_CAT_ID":"52132","TIME_SYSTEM":"UTC","ECCENTRICITY":"0.00009360","ARG_OF_PERICENTER":"85.2474","PERIAPSIS":"539.080","DECAY_DATE":null,"FILE":"3767525","LAUNCH_DATE":"2022-03-19","CENTER_NAME":"EARTH","MEAN_MOTION_DOT":"0.00002828","REV_AT_EPOCH":"5000","INCLINATION":"53.2158","MEAN_ELEMENT_THEORY":"SGP4","ELEMENT_SET_NO":"999","CLASSIFICATION_TYPE":"U","EPHEMERIS_TYPE":"0","SITE":"AFETR","MEAN_MOTION_DDOT":"0.0000000000000","REF_FRAME":"TEME","BSTAR":"0.00019566000000","SEMIMAJOR_AXIS":"6917.863","GP_ID":"224197540","TLE_LINE2":"2 52132  53.2158 111.9884 0000936  85.2474 274.8625 15.08845792 50007","OBJECT_ID":"2022-029AW","RA_OF_ASC_NODE":"111.9884"},{"EPHEMERIS_TYPE":"0","SITE":"AFETR","MEAN_MOTION_DDOT":"0.0000000000000","SEMIMAJOR_AXIS":"6917.744","REF_FRAME":"TEME","BSTAR":"0.00164310000000","GP_ID":"224198291","TLE_LINE2":"2 52133  53.2160 111.7599 0001113  81.3286 278.7832 15.08884500 50012","OBJECT_ID":"2022-029AX","RA_OF_ASC_NODE":"111.7599","ARG_OF_PERICENTER":"81.3286","DECAY_DATE":null,"PERIAPSIS":"538.839","FILE":"3767525","LAUNCH_DATE":"2022-03-19","CENTER_NAME":"EARTH","MEAN_MOTION_DOT":"0.00025991","REV_AT_EPOCH":"5001","INCLINATION":"53.2160","MEAN_ELEMENT_THEORY":"SGP4","CLASSIFICATION_TYPE":"U","ELEMENT_SET_NO":"999","OBJECT_NAME":"STARLINK-3707","PERIOD":"95.435","MEAN_MOTION":"15.08884500","MEAN_ANOMALY":"278.7832","NORAD_CAT_ID":"52133","TIME_SYSTEM":"UTC","ECCENTRICITY":"0.00011130","TLE_LINE1":"1 52133U 22029AX  23032.49261133  .00025991  00000-0  16431-2 0  9991","COUNTRY_CODE":"US","EPOCH":"2023-02-01T11:49:21.618912","APOAPSIS":"540.379","OBJECT_TYPE":"PAYLOAD","RCS_SIZE":"LARGE"},{"INCLINATION":"53.2168","REV_AT_EPOCH":"5001","MEAN_ELEMENT_THEORY":"SGP4","ELEMENT_SET_NO":"999","CLASSIFICATION_TYPE":"U","PERIAPSIS":"539.002","DECAY_DATE":null,"ARG_OF_PERICENTER":"111.0507","MEAN_MOTION_DOT":"0.00001511","CENTER_NAME":"EARTH","FILE":"3767525","LAUNCH_DATE":"2022-03-19","GP_ID":"224199041","RA_OF_ASC_NODE":"111.7389","OBJECT_ID":"2022-029AY","TLE_LINE2":"2 52134  53.2168 111.7389 0001049 111.0507 249.0598 15.08845852 50010","SITE":"AFETR","EPHEMERIS_TYPE":"0","SEMIMAJOR_AXIS":"6917.863","REF_FRAME":"TEME","BSTAR":"0.00011301000000","MEAN_MOTION_DDOT":"0.0000000000000","RCS_SIZE":"LARGE","APOAPSIS":"540.453","OBJECT_TYPE":"PAYLOAD","TLE_LINE1":"1 52134U 22029AY  23032.49613369  .00001511  00000-0  11301-3 0  9998","COUNTRY_CODE":"US","EPOCH":"2023-02-01T11:54:25.950816","NORAD_CAT_ID":"52134","MEAN_ANOMALY":"249.0598","ECCENTRICITY":"0.00010490","TIME_SYSTEM":"UTC","OBJECT_NAME":"STARLINK-3721","PERIOD":"95.437","MEAN_MOTION":"15.08845852"},{"TLE_LINE1":"1 52135U 22029AZ  23032.48141838  .00003118  00000-0  21384-3 0  9992","COUNTRY_CODE":"US","EPOCH":"2023-02-01T11:33:14.548032","RCS_SIZE":"LARGE","APOAPSIS":"540.537","OBJECT_TYPE":"PAYLOAD","OBJECT_NAME":"STARLINK-3729","PERIOD":"95.437","MEAN_MOTION":"15.08850638","NORAD_CAT_ID":"52135","MEAN_ANOMALY":"269.7926","ECCENTRICITY":"0.00011920","TIME_SYSTEM":"UTC","DECAY_DATE":null,"PERIAPSIS":"538.888","ARG_OF_PERICENTER":"90.3203","MEAN_MOTION_DOT":"0.00003118","FILE":"3767525","LAUNCH_DATE":"2022-03-19","CENTER_NAME":"EARTH","MEAN_ELEMENT_THEORY":"SGP4","REV_AT_EPOCH":"5001","INCLINATION":"53.2143","CLASSIFICATION_TYPE":"U","ELEMENT_SET_NO":"999","SITE":"AFETR","EPHEMERIS_TYPE":"0","SEMIMAJOR_AXIS":"6917.848","REF_FRAME":"TEME","BSTAR":"0.00021384000000","MEAN_MOTION_DDOT":"0.0000000000000","GP_ID":"224197789","OBJECT_ID":"2022-029AZ","RA_OF_ASC_NODE":"111.8042","TLE_LINE2":"2 52135  53.2143 111.8042 0001192  90.3203 269.7926 15.08850638 50014"},{"TLE_LINE1":"1 52136U 22029BA  23032.48877631  .00001938  00000-0  13978-3 0  9998","EPOCH":"2023-02-01T11:43:50.273184","COUNTRY_CODE":"US","RCS_SIZE":"LARGE","OBJECT_TYPE":"PAYLOAD","APOAPSIS":"540.570","OBJECT_NAME":"STARLINK-3720","PERIOD":"95.437","MEAN_MOTION":"15.08848052","NORAD_CAT_ID":"52136","MEAN_ANOMALY":"262.3605","TIME_SYSTEM":"UTC","ECCENTRICITY":"0.00012270","PERIAPSIS":"538.872","DECAY_DATE":null,"ARG_OF_PERICENTER":"97.7526","MEAN_MOTION_DOT":"0.00001938","LAUNCH_DATE":"2022-03-19","FILE":"3767525","CENTER_NAME":"EARTH","REV_AT_EPOCH":"5001","MEAN_ELEMENT_THEORY":"SGP4","INCLINATION":"53.2162","ELEMENT_SET_NO":"999","CLASSIFICATION_TYPE":"U","EPHEMERIS_TYPE":"0","SITE":"AFETR","REF_FRAME":"TEME","BSTAR":"0.00013978000000","SEMIMAJOR_AXIS":"6917.856","MEAN_MOTION_DDOT":"0.0000000000000","GP_ID":"224198039","OBJECT_ID":"2022-029BA","RA_OF_ASC_NODE":"111.7750","TLE_LINE2":"2 52136  53.2162 111.7750 0001227  97.7526 262.3605 15.08848052 50019"},{"ECCENTRICITY":"0.00015820","TIME_SYSTEM":"UTC","MEAN_ANOMALY":"256.0786","NORAD_CAT_ID":"52137","PERIOD":"95.437","MEAN_MOTION":"15.08851455","OBJECT_NAME":"STARLINK-3733","OBJECT_TYPE":"PAYLOAD","APOAPSIS":"540.805","RCS_SIZE":"LARGE","EPOCH":"2023-02-01T11:27:56.380032","COUNTRY_CODE":"US","TLE_LINE1":"1 52137U 22029BB  23032.47773588  .00000766  00000-0  66171-4 0  9996","TLE_LINE2":"2 52137  53.2157 111.8282 0001582 104.0382 256.0786 15.08851455 50012","RA_OF_ASC_NODE":"111.8282","OBJECT_ID":"2022-029BB","GP_ID":"224198791","MEAN_MOTION_DDOT":"0.0000000000000","REF_FRAME":"TEME","BSTAR":"0.00006617100000","SEMIMAJOR_AXIS":"6917.845","SITE":"AFETR","EPHEMERIS_TYPE":"0","ELEMENT_SET_NO":"999","CLASSIFICATION_TYPE":"U","INCLINATION":"53.2157","REV_AT_EPOCH":"5001","MEAN_ELEMENT_THEORY":"SGP4","FILE":"3767525","LAUNCH_DATE":"2022-03-19","CENTER_NAME":"EARTH","MEAN_MOTION_DOT":"0.00000766","ARG_OF_PERICENTER":"104.0382","PERIAPSIS":"538.616","DECAY_DATE":null},{"TLE_LINE1":"1 52138U 22029BC  23032.48510126  .00000903  00000-0  74810-4 0  9997","COUNTRY_CODE":"US","EPOCH":"2023-02-01T11:38:32.748864","RCS_SIZE":"LARGE","OBJECT_TYPE":"PAYLOAD","APOAPSIS":"540.754","OBJECT_NAME":"STARLINK-3723","PERIOD":"95.437","MEAN_MOTION":"15.08842576","NORAD_CAT_ID":"52138","MEAN_ANOMALY":"278.6885","ECCENTRICITY":"0.00014700","TIME_SYSTEM":"UTC","DECAY_DATE":null,"PERIAPSIS":"538.721","ARG_OF_PERICENTER":"81.4274","MEAN_MOTION_DOT":"0.00000903","CENTER_NAME":"EARTH","FILE":"3767525","LAUNCH_DATE":"2022-03-19","REV_AT_EPOCH":"5001","INCLINATION":"53.2158","MEAN_ELEMENT_THEORY":"SGP4","CLASSIFICATION_TYPE":"U","ELEMENT_SET_NO":"999","SITE":"AFETR","EPHEMERIS_TYPE":"0","SEMIMAJOR_AXIS":"6917.873","REF_FRAME":"TEME","BSTAR":"0.00007481000000","MEAN_MOTION_DDOT":"0.0000000000000","GP_ID":"224198542","OBJECT_ID":"2022-029BC","RA_OF_ASC_NODE":"111.7952","TLE_LINE2":"2 52138  53.2158 111.7952 0001470  81.4274 278.6885 15.08842576 50015"},{"MEAN_ELEMENT_THEORY":"SGP4","REV_AT_EPOCH":"4987","INCLINATION":"53.2160","CLASSIFICATION_TYPE":"U","ELEMENT_SET_NO":"999","ARG_OF_PERICENTER":"94.8095","DECAY_DATE":null,"PERIAPSIS":"538.725","FILE":"3767601","CENTER_NAME":"EARTH","LAUNCH_DATE":"2022-03-19","MEAN_MOTION_DOT":"0.00001559","GP_ID":"224202674","TLE_LINE2":"2 52139  53.2160 121.5819 0001443  94.8095 265.3062 15.08847327 49870","RA_OF_ASC_NODE":"121.5819","OBJECT_ID":"2022-029BD","EPHEMERIS_TYPE":"0","SITE":"AFETR","MEAN_MOTION_DDOT":"0.0000000000000","BSTAR":"0.00011600000000","REF_FRAME":"TEME","SEMIMAJOR_AXIS":"6917.858","APOAPSIS":"540.721","OBJECT_TYPE":"PAYLOAD","RCS_SIZE":"LARGE","TLE_LINE1":"1 52139U 22029BD  23032.53201608  .00001559  00000-0  11600-3 0  9991","EPOCH":"2023-02-01T12:46:06.189312","COUNTRY_CODE":"US","MEAN_ANOMALY":"265.3062","NORAD_CAT_ID":"52139","ECCENTRICITY":"0.00014430","TIME_SYSTEM":"UTC","OBJECT_NAME":"STARLINK-3730","PERIOD":"95.437","MEAN_MOTION":"15.08847327"}];
